H1 CPF 01  gfz 2022 06 12 12  6632 tandemx   
H2 1003001  6202 36605    2022 06 12 12 59 42 2022 06 17 00 00 42   120 1 1  0 0 0
H9
10 0 59745  35982.000000  0    3399277.375  -4892600.617   3449780.465
10 0 59745  36102.000000  0    3469134.786  -5329495.008   2640890.350
10 0 59745  36222.000000  0    3471496.728  -5673830.787   1785493.299
10 0 59745  36342.000000  0    3408006.467  -5918425.629    898653.120
10 0 59745  36462.000000  0    3281578.545  -6057898.684     -4011.243
10 0 59745  36582.000000  0    3096315.911  -6088789.465   -906607.810
10 0 59745  36702.000000  0    2857401.215  -6009637.546  -1793262.053
10 0 59745  36822.000000  0    2570966.235  -5821020.589  -2648403.406
10 0 59745  36942.000000  0    2243944.412  -5525552.659  -3457045.310
10 0 59745  37062.000000  0    1883908.113  -5127840.951  -4205052.135
10 0 59745  37182.000000  0    1498896.146  -4634402.176  -4879384.606
10 0 59745  37302.000000  0    1097237.792  -4053544.522  -5468321.257
10 0 59745  37422.000000  0     687376.100  -3395217.918  -5961654.162
10 0 59745  37542.000000  0     277693.670  -2670835.564  -6350855.285
10 0 59745  37662.000000  0    -123655.074  -1893071.359  -6629212.314
10 0 59745  37782.000000  0    -508901.832  -1075636.891  -6791933.615
10 0 59745  37902.000000  0    -870809.907   -233041.633  -6836222.313
10 0 59745  38022.000000  0   -1202806.083    619660.123  -6761318.292
10 0 59745  38142.000000  0   -1499097.164   1467131.047  -6568509.196
10 0 59745  38262.000000  0   -1754768.597   2294019.692  -6261110.475
10 0 59745  38382.000000  0   -1965864.951   3085231.945  -5844415.778
10 0 59745  38502.000000  0   -2129451.425   3826203.759  -5325615.628
10 0 59745  38622.000000  0   -2243654.499   4503168.988  -4713684.940
10 0 59745  38742.000000  0   -2307681.968   5103419.334  -4019238.891
10 0 59745  38862.000000  0   -2321820.421   5615549.175  -3254357.438
10 0 59745  38982.000000  0   -2287409.865   6029680.152  -2432382.923
10 0 59745  39102.000000  0   -2206796.424   6337662.818  -1567692.295
10 0 59745  39222.000000  0   -2083263.931   6533247.225   -675445.212
10 0 59745  39342.000000  0   -1920945.409   6612218.423    228683.480
10 0 59745  39462.000000  0   -1724716.499   6572496.414   1128785.464
10 0 59745  39582.000000  0   -1500072.181   6414190.026   2009010.900
10 0 59745  39702.000000  0   -1252990.087   6139603.888   2853856.939
10 0 59745  39822.000000  0    -989785.592   5753202.423   3648447.494
10 0 59745  39942.000000  0    -716962.324   5261532.478   4378800.340
10 0 59745  40062.000000  0    -441061.145   4673104.445   5032078.433
10 0 59745  40182.000000  0    -168509.457   3998232.466   5596814.811
10 0 59745  40302.000000  0      94521.954   3248846.005   6063109.808
10 0 59745  40422.000000  0     342252.921   2438270.350   6422800.946
10 0 59745  40542.000000  0     569416.497   1580983.756   6669599.349
10 0 59745  40662.000000  0     771367.683    692354.882   6799194.090
10 0 59745  40782.000000  0     944176.042   -211633.888   6809321.829
10 0 59745  40902.000000  0    1084701.081  -1114672.646   6699804.709
10 0 59745  41022.000000  0    1190649.170  -2000418.147   6472553.931
10 0 59745  41142.000000  0    1260611.120  -2852789.423   6131538.990
10 0 59745  41262.000000  0    1294079.656  -3656261.728   5682722.459
10 0 59745  41382.000000  0    1291446.162  -4396151.787   5133959.716
10 0 59745  41502.000000  0    1253978.515  -5058889.331   4494867.394
10 0 59745  41622.000000  0    1183779.237  -5632273.561   3776661.580
10 0 59745  41742.000000  0    1083724.666  -6105708.217   2991963.725
10 0 59745  41862.000000  0     957386.329  -6470406.578   2154578.425
10 0 59745  41982.000000  0     808935.267  -6719563.725   1279248.830
10 0 59745  42102.000000  0     643032.854  -6848491.830    381392.576
10 0 59745  42222.000000  0     464710.068  -6854715.166   -523178.217
10 0 59745  42342.000000  0     279237.400  -6738017.519  -1418546.452
10 0 59745  42462.000000  0      91991.232  -6500442.732  -2288978.705
10 0 59745  42582.000000  0     -91680.638  -6146251.368  -3119207.728
10 0 59745  42702.000000  0    -266591.559  -5681834.560  -3894704.475
10 0 59745  42822.000000  0    -427843.352  -5115586.021  -4601933.775
10 0 59745  42942.000000  0    -570944.938  -4457736.848  -5228586.815
10 0 59745  43062.000000  0    -691919.791  -3720159.345  -5763788.291
10 0 59745  43182.000000  0    -787399.682  -2916143.585  -6198275.660
10 0 59745  43302.000000  0    -854703.224  -2060152.020  -6524548.420
10 0 59745  43422.000000  0    -891898.030  -1167557.251  -6736985.883
10 0 59745  43542.000000  0    -897845.834   -254368.202  -6831934.235
10 0 59745  43662.000000  0    -872229.328    663052.552  -6807762.190
10 0 59745  43782.000000  0    -815560.581   1568274.407  -6664885.017
10 0 59745  43902.000000  0    -729171.533   2445085.275  -6405758.175
10 0 59745  44022.000000  0    -615186.268   3277775.030  -6034840.669
10 0 59745  44142.000000  0    -476475.064   4051414.087  -5558527.490
10 0 59745  44262.000000  0    -316590.831   4752120.688  -4985049.595
10 0 59745  44382.000000  0    -139689.535   5367313.744  -4324343.616
10 0 59745  44502.000000  0      49564.480   5885946.718  -3587890.042
10 0 59745  44622.000000  0     246106.853   6298716.161  -2788521.860
10 0 59745  44742.000000  0     444592.977   6598240.827  -1940206.633
10 0 59745  44862.000000  0     639526.668   6779206.903  -1057804.144
10 0 59745  44982.000000  0     825394.866   6838474.126   -156803.699
10 0 59745  45102.000000  0     996804.988   6775139.466    746953.542
10 0 59745  45222.000000  0    1148621.212   6590555.214   1637561.106
10 0 59745  45342.000000  0    1276094.955   6288302.081   2499335.326
10 0 59745  45462.000000  0    1374987.238   5874118.515   3317099.270
10 0 59745  45582.000000  0    1441680.369   5355787.306   4076457.740
10 0 59745  45702.000000  0    1473276.442   4742981.233   4764055.471
10 0 59745  45822.000000  0    1467678.473   4047071.880   5367816.441
10 0 59745  45942.000000  0    1423652.146   3280906.568   5877151.821
10 0 59745  46062.000000  0    1340869.749   2458564.501   6283140.821
10 0 59745  46182.000000  0    1219933.208   1595091.777   6578682.226
10 0 59745  46302.000000  0    1062376.929    706221.325   6758612.660
10 0 59745  46422.000000  0     870650.076   -191915.198   6819790.068
10 0 59745  46542.000000  0     648078.744  -1083078.737   6761146.126
10 0 59745  46662.000000  0     398808.065  -1951216.739   6583704.707
10 0 59745  46782.000000  0     127724.992  -2780752.245   6290565.262
10 0 59745  46902.000000  0    -159636.574  -3556865.185   5886851.109
10 0 59745  47022.000000  0    -457205.795  -4265757.868   5379622.614
10 0 59745  47142.000000  0    -758498.787  -4894902.510   4777760.946
10 0 59745  47262.000000  0   -1056755.704  -5433270.747   4091821.179
10 0 59745  47382.000000  0   -1345088.295  -5871537.683   3333850.668
10 0 59745  47502.000000  0   -1616633.418  -6202252.565   2517177.979
10 0 59745  47622.000000  0   -1864709.846  -6419974.606   1656177.915
10 0 59745  47742.000000  0   -2082975.186  -6521370.176    766013.838
10 0 59745  47862.000000  0   -2265576.540  -6505267.160   -137636.964
10 0 59745  47982.000000  0   -2407292.188  -6372666.013  -1038867.995
10 0 59745  48102.000000  0   -2503661.009  -6126706.929  -1921832.231
10 0 59745  48222.000000  0   -2551096.600  -5772594.326  -2771028.600
10 0 59745  48342.000000  0   -2546982.812  -5317480.344  -3571580.408
10 0 59745  48462.000000  0   -2489748.081  -4770310.258  -4309498.673
10 0 59745  48582.000000  0   -2378917.297  -4141635.747  -4971924.383
10 0 59745  48702.000000  0   -2215140.899  -3443401.973  -5547346.583
10 0 59745  48822.000000  0   -2000201.197  -2688713.412  -6025794.105
10 0 59745  48942.000000  0   -1736995.372  -1891582.741  -6398998.558
10 0 59745  49062.000000  0   -1429495.513  -1066668.291  -6660525.556
10 0 59745  49182.000000  0   -1082688.266   -229006.014  -6805874.124
10 0 59745  49302.000000  0    -702494.737    606259.833  -6832545.093
10 0 59745  49422.000000  0    -295670.628   1424143.412  -6740079.186
10 0 59745  49542.000000  0     130310.403   2210078.952  -6530063.752
10 0 59745  49662.000000  0     567389.376   2950174.041  -6206110.311
10 0 59745  49782.000000  0    1007071.233   3631452.677  -5773800.058
10 0 59745  49902.000000  0    1440585.547   4242081.830  -5240596.283
10 0 59745  50022.000000  0    1859057.427   4771579.445  -4615727.587
10 0 59745  50142.000000  0    2253686.379   5211001.398  -3910039.361
10 0 59745  50262.000000  0    2615928.715   5553101.052  -3135814.384
10 0 59745  50382.000000  0    2937680.357   5792459.124  -2306566.422
10 0 59745  50502.000000  0    3211456.406   5925580.218  -1436807.672
10 0 59745  50622.000000  0    3430562.080   5950952.495   -541793.815
10 0 59745  50742.000000  0    3589250.083   5869067.761    362748.375
10 0 59745  50862.000000  0    3682860.457   5682400.999   1260904.236
10 0 59745  50982.000000  0    3707940.233   5395349.920   2136858.775
10 0 59745  51102.000000  0    3662338.785   5014137.225   2975183.512
10 0 59745  51222.000000  0    3545276.059   4546675.032   3761117.623
10 0 59745  51342.000000  0    3357382.913   4002395.378   4480832.041
10 0 59745  51462.000000  0    3100712.202   3392055.569   5121677.769
10 0 59745  51582.000000  0    2778716.766   2727517.344   5672408.326
10 0 59745  51702.000000  0    2396202.765   2021509.987   6123372.001
10 0 59745  51822.000000  0    1959256.629   1287382.058   6466676.693
10 0 59745  51942.000000  0    1475144.887    538845.038   6696321.920
10 0 59745  52062.000000  0     952190.734   -210283.005   6808296.846
10 0 59745  52182.000000  0     399630.134   -946331.461   6800647.232
10 0 59745  52302.000000  0    -172551.691  -1656027.180   6673507.844
10 0 59745  52422.000000  0    -753800.890  -2326733.676   6429099.698
99
